{
    "links": {
        "self": "http://www.neowsapp.com/rest/v1/neo/3291100?api_key=iIulBulltgU6a56xZRHN4H3l9WmuAYTsLGpBGhQ2"
    },
    "id": "3291100",
    "neo_reference_id": "3291100",
    "name": "(2005 SP1)",
    "designation": "2005 SP1",
    "nasa_jpl_url": "http://ssd.jpl.nasa.gov/sbdb.cgi?sstr=3291100",
    "absolute_magnitude_h": 23.3,
    "estimated_diameter": {
        "kilometers": {
            "estimated_diameter_min": 0.058150704,
            "estimated_diameter_max": 0.130028927
        },
        "meters": {
            "estimated_diameter_min": 58.1507039646,
            "estimated_diameter_max": 130.0289270043
        },
        "miles": {
            "estimated_diameter_min": 0.0361331611,
            "estimated_diameter_max": 0.0807962044
        },
        "feet": {
            "estimated_diameter_min": 190.7831555951,
            "estimated_diameter_max": 426.6041048727
        }
    },
    "is_potentially_hazardous_asteroid": false,
    "close_approach_data": [
        {
            "close_approach_date": "1930-09-12",
            "close_approach_date_full": "1930-Sep-12 11:15",
            "epoch_date_close_approach": -1240317900000,
            "relative_velocity": {
                "kilometers_per_second": "6.6348049346",
                "kilometers_per_hour": "23885.2977646754",
                "miles_per_hour": "14841.3951582785"
            },
            "miss_distance": {
                "astronomical": "1.8183426412",
                "lunar": "707.3352874268",
                "kilometers": "272020186.053694244",
                "miles": "169025505.7969148072"
            },
            "orbiting_body": "Juptr"
        },
        {
            "close_approach_date": "1932-04-09",
            "close_approach_date_full": "1932-Apr-09 16:19",
            "epoch_date_close_approach": -1190619660000,
            "relative_velocity": {
                "kilometers_per_second": "29.6086038547",
                "kilometers_per_hour": "106590.9738770914",
                "miles_per_hour": "66231.4859626849"
            },
            "miss_distance": {
                "astronomical": "0.4455135342",
                "lunar": "173.3047648038",
                "kilometers": "66647875.772492154",
                "miles": "41413069.6554695652"
            },
            "orbiting_body": "Earth"
        },
        {
            "close_approach_date": "2005-09-15",
            "close_approach_date_full": "2005-Sep-15 18:38",
            "epoch_date_close_approach": 1126809480000,
            "relative_velocity": {
                "kilometers_per_second": "16.8973687003",
                "kilometers_per_hour": "60830.5273209734",
                "miles_per_hour": "37797.7240456349"
            },
            "miss_distance": {
                "astronomical": "0.0145385343",
                "lunar": "5.6554898427",
                "kilometers": "2174933.764201941",
                "miles": "1351441.1739151458"
            },
            "orbiting_body": "Earth"
        }
    ],
    "orbital_data": {
        "orbit_id": "18",
        "orbit_determination_date": "2017-04-06 09:10:28",
        "first_observation_date": "2005-09-23",
        "last_observation_date": "2005-10-13",
        "data_arc_in_days": 20,
        "observations_used": 113,
        "orbit_uncertainty": "8",
        "minimum_orbit_intersection": ".0141354",
        "jupiter_tisserand_invariant": "3.189",
        "epoch_osculation": "2453642.5",
        "eccentricity": ".668062867259075",
        "semi_major_axis": "2.377534709474642",
        "inclination": "5.981392980695345",
        "ascending_node_longitude": "180.1862272482878",
        "orbital_period": "1339.025123983604",
        "perihelion_distance": ".7891920544550408",
        "perihelion_argument": "109.6363889693866",
        "aphelion_distance": "3.965877364494244",
        "perihelion_time": "2453588.069854534201",
        "mean_anomaly": "14.63367043434771",
        "mean_motion": ".2688523116944952",
        "equinox": "J2000",
        "orbit_class": {
            "orbit_class_type": "APO",
            "orbit_class_description": "Near-Earth asteroid orbits which cross the Earth’s orbit similar to that of 1862 Apollo",
            "orbit_class_range": "a (semi-major axis) > 1.0 AU; q (perihelion) < 1.017 AU"
        }
    },
    "is_sentry_object": false
}